[
  {
    "OBJECT_NAME": "STARLINK-5665",
    "OBJECT_ID": "23013AG",
    "EPOCH": "2025-11-11T02:33:08.893152",
    "MEAN_MOTION": 15.02538935,
    "ECCENTRICITY": 0.0001501,
    "INCLINATION": 43.0041,
    "RA_OF_ASC_NODE": 211.4803,
    "ARG_OF_PERICENTER": 267.761,
    "MEAN_ANOMALY": 92.3061,
    "EPHEMERIS_TYPE": 0,
    "CLASSIFICATION_TYPE": "U",
    "NORAD_CAT_ID": 55361,
    "ELEMENT_SET_NO": 999,
    "REV_AT_EPOCH": 15402,
    "BSTAR": 0.00011094,
    "MEAN_MOTION_DOT": 1.295e-05,
    "MEAN_MOTION_DDOT": 0.0,
    "TLE_LINE1": "1 55361U 23013AG  25315.10635293  .00001295  00000+0  11094-3 0  9998",
    "TLE_LINE2": "2 55361  43.0041 211.4803 0001501 267.7610  92.3061 15.02538935154023",
    "COMMENT": "Grouped by shell and plane from TLE"
  },
  {
    "OBJECT_NAME": "STARLINK-5574",
    "OBJECT_ID": "23013AH",
    "EPOCH": "2025-11-11T02:49:08.000544",
    "MEAN_MOTION": 15.02535277,
    "ECCENTRICITY": 0.0001335,
    "INCLINATION": 43.0027,
    "RA_OF_ASC_NODE": 211.5612,
    "ARG_OF_PERICENTER": 264.2495,
    "MEAN_ANOMALY": 95.8196,
    "EPHEMERIS_TYPE": 0,
    "CLASSIFICATION_TYPE": "U",
    "NORAD_CAT_ID": 55362,
    "ELEMENT_SET_NO": 999,
    "REV_AT_EPOCH": 15402,
    "BSTAR": 0.00011352,
    "MEAN_MOTION_DOT": 1.33e-05,
    "MEAN_MOTION_DDOT": 0.0,
    "TLE_LINE1": "1 55362U 23013AH  25315.11745371  .00001330  00000+0  11352-3 0  9996",
    "TLE_LINE2": "2 55362  43.0027 211.5612 0001335 264.2495  95.8196 15.02535277154028",
    "COMMENT": "Grouped by shell and plane from TLE"
  },
  {
    "OBJECT_NAME": "STARLINK-5654",
    "OBJECT_ID": "23013AM",
    "EPOCH": "2025-11-11T01:18:12.079008",
    "MEAN_MOTION": 15.02537375,
    "ECCENTRICITY": 0.0001132,
    "INCLINATION": 43.0032,
    "RA_OF_ASC_NODE": 211.9455,
    "ARG_OF_PERICENTER": 273.5672,
    "MEAN_ANOMALY": 86.504,
    "EPHEMERIS_TYPE": 0,
    "CLASSIFICATION_TYPE": "U",
    "NORAD_CAT_ID": 55366,
    "ELEMENT_SET_NO": 999,
    "REV_AT_EPOCH": 15401,
    "BSTAR": 2.1472e-05,
    "MEAN_MOTION_DOT": 8.6e-07,
    "MEAN_MOTION_DDOT": 0.0,
    "TLE_LINE1": "1 55366U 23013AM  25315.05430647  .00000086  00000+0  21472-4 0  9992",
    "TLE_LINE2": "2 55366  43.0032 211.9455 0001132 273.5672  86.5040 15.02537375154017",
    "COMMENT": "Grouped by shell and plane from TLE"
  },
  {
    "OBJECT_NAME": "STARLINK-5635",
    "OBJECT_ID": "23013AN",
    "EPOCH": "2025-11-11T03:17:53.863008",
    "MEAN_MOTION": 15.02536779,
    "ECCENTRICITY": 0.000126,
    "INCLINATION": 43.0042,
    "RA_OF_ASC_NODE": 211.705,
    "ARG_OF_PERICENTER": 277.1067,
    "MEAN_ANOMALY": 82.9632,
    "EPHEMERIS_TYPE": 0,
    "CLASSIFICATION_TYPE": "U",
    "NORAD_CAT_ID": 55367,
    "ELEMENT_SET_NO": 999,
    "REV_AT_EPOCH": 15402,
    "BSTAR": 5.0125e-05,
    "MEAN_MOTION_DOT": 4.74e-06,
    "MEAN_MOTION_DDOT": 0.0,
    "TLE_LINE1": "1 55367U 23013AN  25315.13742897  .00000474  00000+0  50125-4 0  9993",
    "TLE_LINE2": "2 55367  43.0042 211.7050 0001260 277.1067  82.9632 15.02536779154023",
    "COMMENT": "Grouped by shell and plane from TLE"
  },
  {
    "OBJECT_NAME": "STARLINK-5625",
    "OBJECT_ID": "23013AP",
    "EPOCH": "2025-11-11T02:34:44.812704",
    "MEAN_MOTION": 15.0253328,
    "ECCENTRICITY": 0.0001353,
    "INCLINATION": 43.0042,
    "RA_OF_ASC_NODE": 211.4868,
    "ARG_OF_PERICENTER": 259.5458,
    "MEAN_ANOMALY": 100.5232,
    "EPHEMERIS_TYPE": 0,
    "CLASSIFICATION_TYPE": "U",
    "NORAD_CAT_ID": 55368,
    "ELEMENT_SET_NO": 999,
    "REV_AT_EPOCH": 15402,
    "BSTAR": 9.130700000000001e-05,
    "MEAN_MOTION_DOT": 1.03e-05,
    "MEAN_MOTION_DDOT": 0.0,
    "TLE_LINE1": "1 55368U 23013AP  25315.10746311  .00001030  00000+0  91307-4 0  9992",
    "TLE_LINE2": "2 55368  43.0042 211.4868 0001353 259.5458 100.5232 15.02533280154026",
    "COMMENT": "Grouped by shell and plane from TLE"
  },
  {
    "OBJECT_NAME": "STARLINK-5586",
    "OBJECT_ID": "23013AX",
    "EPOCH": "2025-11-11T01:46:58.005408",
    "MEAN_MOTION": 15.02537127,
    "ECCENTRICITY": 8.97e-05,
    "INCLINATION": 43.0024,
    "RA_OF_ASC_NODE": 212.0887,
    "ARG_OF_PERICENTER": 279.1171,
    "MEAN_ANOMALY": 80.957,
    "EPHEMERIS_TYPE": 0,
    "CLASSIFICATION_TYPE": "U",
    "NORAD_CAT_ID": 55376,
    "ELEMENT_SET_NO": 999,
    "REV_AT_EPOCH": 15401,
    "BSTAR": 3.3865e-05,
    "MEAN_MOTION_DOT": 2.54e-06,
    "MEAN_MOTION_DDOT": 0.0,
    "TLE_LINE1": "1 55376U 23013AX  25315.07428247  .00000254  00000+0  33865-4 0  9994",
    "TLE_LINE2": "2 55376  43.0024 212.0887 0000897 279.1171  80.9570 15.02537127154014",
    "COMMENT": "Grouped by shell and plane from TLE"
  },
  {
    "OBJECT_NAME": "STARLINK-5571",
    "OBJECT_ID": "23013BB",
    "EPOCH": "2025-11-11T02:29:56.540832",
    "MEAN_MOTION": 15.0254265,
    "ECCENTRICITY": 0.0001034,
    "INCLINATION": 43.0037,
    "RA_OF_ASC_NODE": 211.4615,
    "ARG_OF_PERICENTER": 269.7545,
    "MEAN_ANOMALY": 90.3179,
    "EPHEMERIS_TYPE": 0,
    "CLASSIFICATION_TYPE": "U",
    "NORAD_CAT_ID": 55380,
    "ELEMENT_SET_NO": 999,
    "REV_AT_EPOCH": 15402,
    "BSTAR": 0.00016120000000000002,
    "MEAN_MOTION_DOT": 1.975e-05,
    "MEAN_MOTION_DDOT": 0.0,
    "TLE_LINE1": "1 55380U 23013BB  25315.10412663  .00001975  00000+0  16120-3 0  9993",
    "TLE_LINE2": "2 55380  43.0037 211.4615 0001034 269.7545  90.3179 15.02542650154027",
    "COMMENT": "Grouped by shell and plane from TLE"
  },
  {
    "OBJECT_NAME": "STARLINK-5531",
    "OBJECT_ID": "23013BE",
    "EPOCH": "2025-11-11T02:25:09.325632",
    "MEAN_MOTION": 15.02537381,
    "ECCENTRICITY": 0.0001589,
    "INCLINATION": 43.0033,
    "RA_OF_ASC_NODE": 211.4327,
    "ARG_OF_PERICENTER": 264.7804,
    "MEAN_ANOMALY": 95.2857,
    "EPHEMERIS_TYPE": 0,
    "CLASSIFICATION_TYPE": "U",
    "NORAD_CAT_ID": 55383,
    "ELEMENT_SET_NO": 999,
    "REV_AT_EPOCH": 15402,
    "BSTAR": 7.325100000000001e-05,
    "MEAN_MOTION_DOT": 7.86e-06,
    "MEAN_MOTION_DDOT": 0.0,
    "TLE_LINE1": "1 55383U 23013BE  25315.10080238  .00000786  00000+0  73251-4 0  9993",
    "TLE_LINE2": "2 55383  43.0033 211.4327 0001589 264.7804  95.2857 15.02537381154026",
    "COMMENT": "Grouped by shell and plane from TLE"
  },
  {
    "OBJECT_NAME": "STARLINK-6042",
    "OBJECT_ID": "23078AT",
    "EPOCH": "2025-11-11T02:27:03.387456",
    "MEAN_MOTION": 14.98341492,
    "ECCENTRICITY": 0.0002796,
    "INCLINATION": 70.0005,
    "RA_OF_ASC_NODE": 213.5364,
    "ARG_OF_PERICENTER": 273.0227,
    "MEAN_ANOMALY": 87.0612,
    "EPHEMERIS_TYPE": 0,
    "CLASSIFICATION_TYPE": "U",
    "NORAD_CAT_ID": 56808,
    "ELEMENT_SET_NO": 999,
    "REV_AT_EPOCH": 13665,
    "BSTAR": 0.00013047000000000002,
    "MEAN_MOTION_DOT": 1.465e-05,
    "MEAN_MOTION_DDOT": 0.0,
    "TLE_LINE1": "1 56808U 23078AT  25315.10212254  .00001465  00000+0  13047-3 0  9993",
    "TLE_LINE2": "2 56808  70.0005 213.5364 0002796 273.0227  87.0612 14.98341492136652",
    "COMMENT": "Grouped by shell and plane from TLE"
  },
  {
    "OBJECT_NAME": "STARLINK-30432",
    "OBJECT_ID": "23144A",
    "EPOCH": "2025-11-11T03:30:44.082720",
    "MEAN_MOTION": 15.02544455,
    "ECCENTRICITY": 0.0001381,
    "INCLINATION": 43.0045,
    "RA_OF_ASC_NODE": 212.039,
    "ARG_OF_PERICENTER": 264.9578,
    "MEAN_ANOMALY": 95.1107,
    "EPHEMERIS_TYPE": 0,
    "CLASSIFICATION_TYPE": "U",
    "NORAD_CAT_ID": 57864,
    "ELEMENT_SET_NO": 999,
    "REV_AT_EPOCH": 11973,
    "BSTAR": 0.00010503,
    "MEAN_MOTION_DOT": 1.216e-05,
    "MEAN_MOTION_DDOT": 0.0,
    "TLE_LINE1": "1 57864U 23144A   25315.14634355  .00001216  00000+0  10503-3 0  9992",
    "TLE_LINE2": "2 57864  43.0045 212.0390 0001381 264.9578  95.1107 15.02544455119738",
    "COMMENT": "Grouped by shell and plane from TLE"
  },
  {
    "OBJECT_NAME": "STARLINK-30427",
    "OBJECT_ID": "23144B",
    "EPOCH": "2025-11-11T01:50:13.329024",
    "MEAN_MOTION": 15.02527701,
    "ECCENTRICITY": 0.0001234,
    "INCLINATION": 43.002,
    "RA_OF_ASC_NODE": 212.3715,
    "ARG_OF_PERICENTER": 277.7541,
    "MEAN_ANOMALY": 82.3161,
    "EPHEMERIS_TYPE": 0,
    "CLASSIFICATION_TYPE": "U",
    "NORAD_CAT_ID": 57865,
    "ELEMENT_SET_NO": 999,
    "REV_AT_EPOCH": 11972,
    "BSTAR": 0.0,
    "MEAN_MOTION_DOT": -9.44e-06,
    "MEAN_MOTION_DDOT": 0.0,
    "TLE_LINE1": "1 57865U 23144B   25315.07654316 -.00000944  00000+0 -54844-4 0  9990",
    "TLE_LINE2": "2 57865  43.0020 212.3715 0001234 277.7541  82.3161 15.02527701119727",
    "COMMENT": "Grouped by shell and plane from TLE"
  },
  {
    "OBJECT_NAME": "STARLINK-30393",
    "OBJECT_ID": "23144C",
    "EPOCH": "2025-11-11T02:04:25.622688",
    "MEAN_MOTION": 15.0254205,
    "ECCENTRICITY": 0.0001128,
    "INCLINATION": 43.0034,
    "RA_OF_ASC_NODE": 211.5893,
    "ARG_OF_PERICENTER": 273.6778,
    "MEAN_ANOMALY": 86.3935,
    "EPHEMERIS_TYPE": 0,
    "CLASSIFICATION_TYPE": "U",
    "NORAD_CAT_ID": 57866,
    "ELEMENT_SET_NO": 999,
    "REV_AT_EPOCH": 11973,
    "BSTAR": 0.00015964,
    "MEAN_MOTION_DOT": 1.954e-05,
    "MEAN_MOTION_DDOT": 0.0,
    "TLE_LINE1": "1 57866U 23144C   25315.08640767  .00001954  00000+0  15964-3 0  9996",
    "TLE_LINE2": "2 57866  43.0034 211.5893 0001128 273.6778  86.3935 15.02542050119738",
    "COMMENT": "Grouped by shell and plane from TLE"
  },
  {
    "OBJECT_NAME": "STARLINK-30439",
    "OBJECT_ID": "23144D",
    "EPOCH": "2025-11-11T01:45:25.126272",
    "MEAN_MOTION": 15.02540165,
    "ECCENTRICITY": 0.0001053,
    "INCLINATION": 43.003,
    "RA_OF_ASC_NODE": 212.3512,
    "ARG_OF_PERICENTER": 271.8218,
    "MEAN_ANOMALY": 88.2504,
    "EPHEMERIS_TYPE": 0,
    "CLASSIFICATION_TYPE": "U",
    "NORAD_CAT_ID": 57867,
    "ELEMENT_SET_NO": 999,
    "REV_AT_EPOCH": 11977,
    "BSTAR": 0.0001227,
    "MEAN_MOTION_DOT": 1.454e-05,
    "MEAN_MOTION_DDOT": 0.0,
    "TLE_LINE1": "1 57867U 23144D   25315.07320748  .00001454  00000+0  12270-3 0  9992",
    "TLE_LINE2": "2 57867  43.0030 212.3512 0001053 271.8218  88.2504 15.02540165119770",
    "COMMENT": "Grouped by shell and plane from TLE"
  }
]